QIANFAN-60              
1 62790U 25016F   25266.94608867  .00000059  00000+0  70445-4 0  9994
2 62790  88.9740 111.3399 0014306 209.2942 150.7410 13.52523747 36456
QIANFAN-61              
1 62791U 25016G   25266.97113750  .00000060  00000+0  74502-4 0  9990
2 62791  88.9806 111.4440 0013619 207.9162 152.1260 13.50971786 36472
QIANFAN-62              
1 62792U 25016H   25266.97528179  .00000062  00000+0  77591-4 0  9999
2 62792  88.9752 111.3551 0014983 208.8327 151.1998 13.50965792 36469
QIANFAN-63              
1 62793U 25016J   25266.77739156  .00000086  00000+0  11768-3 0  9996
2 62793  88.9760 111.3217 0014609 215.7404 144.2770 13.49732499 36472
QIANFAN-64              
1 62794U 25016K   25266.00459885  .00000081  00000+0  10493-3 0  9990
2 62794  88.9747 111.3867 0012822 207.8155 152.2313 13.52421057 36368
QIANFAN-65              
1 62795U 25016L   25266.96291454  .00000064  00000+0  80177-4 0  9990
2 62795  88.9741 111.3163 0012820 208.0085 152.0378 13.50969363 36471
QIANFAN-66              
1 62796U 25016M   25266.99176198  .00000059  00000+0  73410-4 0  9997
2 62796  88.9762 111.2678 0014027 203.6809 156.3698 13.50964564 36527
QIANFAN-67              
1 62797U 25016N   25266.99575884  .00000057  00000+0  70194-4 0  9997
2 62797  88.9753 111.3008 0013841 211.0921 148.9412 13.50966016 36498
QIANFAN-68              
1 62798U 25016P   25266.46913683  .00000070  00000+0  89224-4 0  9992
2 62798  88.9758 111.3962 0013928 210.6591 149.3747 13.50984556 36403
QIANFAN-69              
1 62799U 25016Q   25266.92998105  .00000070  00000+0  90001-4 0  9991
2 62799  88.9735 111.2365 0014654 210.7967 149.2326 13.50966120 36500
QIANFAN-70              
1 62800U 25016R   25266.94637610  .00000074  00000+0  95412-4 0  9992
2 62800  88.9756 111.3564 0014484 200.3369 159.7207 13.50970676 36460
QIANFAN-71              
1 62801U 25016S   25266.94234295  .00000068  00000+0  86011-4 0  9993
2 62801  88.9750 111.3412 0014484 214.5539 145.4672 13.50969802 36460
QIANFAN-72              
1 62802U 25016T   25266.95037734  .00000073  00000+0  97222-4 0  9996
2 62802  88.9739 111.3594 0017873 222.9076 137.0681 13.49485918 36458
QIANFAN-73              
1 63159U 25046A   25266.91170153  .00000227  00000+0  33252-3 0  9997
2 63159  88.9830 328.2760 0014415   3.4371 356.6877 13.50975238 36636
QIANFAN-74              
1 63160U 25046B   25266.96919438  .00000233  00000+0  34186-3 0  9995
2 63160  88.9831 328.1583 0002224 106.2715 253.8681 13.50968652 36701
QIANFAN-75              
1 63161U 25046C   25266.95695456  .00000253  00000+0  37285-3 0  9991
2 63161  88.9831 328.3920 0015593   5.7762 354.3566 13.50978686 36579
QIANFAN-76              
1 63162U 25046D   25266.95282363  .00000210  00000+0  30712-3 0  9992
2 63162  88.9831 328.3734 0013209   7.9316 352.2042 13.50973090 36585
QIANFAN-77              
1 63163U 25046E   25266.91260924  .00000534  00000+0  38006-3 0  9991
2 63163  88.9827 327.0403 0013268 337.9281  22.1322 13.96050791 37312
QIANFAN-78              
1 63164U 25046F   25266.91990843  .00000221  00000+0  32416-3 0  9994
2 63164  88.9832 328.2417 0014663   9.5286 350.6141 13.50977501 36655
QIANFAN-79              
1 63165U 25046G   25266.94857238  .00000252  00000+0  37119-3 0  9997
2 63165  88.9835 328.3431 0014271   7.9335 352.2039 13.50966874 36608
QIANFAN-80              
1 63166U 25046H   25266.96515447  .00000236  00000+0  34772-3 0  9997
2 63166  88.9832 328.0505 0013459  12.9367 347.2127 13.50967228 36766
QIANFAN-81              
1 63167U 25046J   25266.94453757  .00000259  00000+0  38267-3 0  9999
2 63167  88.9832 328.1210 0013969   0.3931 359.7229 13.50979403 36719
QIANFAN-82              
1 63168U 25046K   25266.97746867  .00000254  00000+0  37552-3 0  9991
2 63168  88.9832 328.1612 0012464   9.8337 350.3056 13.50967108 36702
QIANFAN-83              
1 63169U 25046L   25266.91324655  .00000283  00000+0  35139-3 0  9994
2 63169  88.9831 328.1007 0013324 358.4819   1.6296 13.61953846 36735
QIANFAN-84              
1 63170U 25046M   25266.93199093  .00000192  00000+0  27904-3 0  9994
2 63170  88.9833 328.2988 0015246   4.2421 355.8857 13.50980522 36622
QIANFAN-85              
1 63171U 25046N   25266.92814501  .00000238  00000+0  35004-3 0  9993
2 63171  88.9832 328.1713 0012762   8.6008 351.5360 13.50977259 36698
QIANFAN-86              
1 63172U 25046P   25266.93636094  .00000250  00000+0  36913-3 0  9998
2 63172  88.9834 328.0307 0010849  14.9251 345.2219 13.50977754 36775
QIANFAN-87              
1 63173U 25046Q   25266.90757578  .00000247  00000+0  36426-3 0  9992
2 63173  88.9829 328.1483 0011347   9.0702 351.0652 13.50973568 36704
QIANFAN-88              
1 63174U 25046R   25266.92400041  .00000238  00000+0  34976-3 0  9993
2 63174  88.9833 328.0991 0012046  16.7685 343.3862 13.50966822 36730
QIANFAN-89              
1 63175U 25046S   25266.96086407  .00000025  00000+0  20185-4 0  9996
2 63175  88.9833 328.2840 0015945   4.0508 356.0770 13.50967464 36632
QIANFAN-90              
1 63176U 25046T   25266.91560097  .00000231  00000+0  33843-3 0  9997
2 63176  88.9833 328.2613 0012832   4.4422 355.6841 13.50980568 36647
